OBJECT_NAME,OBJECT_ID,EPOCH,MEAN_MOTION,ECCENTRICITY,INCLINATION,RA_OF_ASC_NODE,ARG_OF_PERICENTER,MEAN_ANOMALY,EPHEMERIS_TYPE,CLASSIFICATION_TYPE,NORAD_CAT_ID,ELEMENT_SET_NO,REV_AT_EPOCH,BSTAR,MEAN_MOTION_DOT,MEAN_MOTION_DDOT
CUTE-1 (CO-55),2003-031E,2026-07-13T05:44:56.494464,14.24350794,.00107993,98.6742,202.4711,107.7060,252.5299,0,U,27844,999,19538,.87036192E-4,.158E-5,0
CUBESAT XI-IV (CO-57),2003-031J,2026-07-12T12:55:06.299904,14.23633637,.00104483,98.6772,201.4707,126.3839,233.8305,0,U,27848,999,19498,.7534821E-4,.128E-5,0
CUBESAT XI-V,2005-043F,2026-07-12T21:09:56.819232,14.72699028,.00151848,98.3010,350.0479,122.0632,238.2052,0,U,28895,999,10553,.12439542E-3,.741E-5,0
SWISSCUBE,2009-051B,2026-07-13T07:17:18.426336,14.62528711,.0007766,98.4011,102.6448,124.1169,236.0769,0,U,35932,999,89297,.1073E-3,.495E-5,0
BEESAT-1,2009-051C,2026-07-12T17:03:25.723296,14.61759519,.00059845,98.3939,101.6234,136.3628,223.8047,0,U,35933,999,89291,.88659106E-4,.393E-5,0
ITUPSAT1,2009-051E,2026-07-11T23:17:18.975264,14.60475983,.0007861,98.4023,100.0372,152.4089,207.7529,0,U,35935,999,89235,.90105677E-4,.388E-5,0
TISAT 1,2010-035E,2026-07-13T07:19:27.025824,15.32685043,.0004352,98.0709,143.1928,123.3845,236.7812,0,U,36799,999,87170,.39020732E-3,.12237E-3,0
STRAND-1,2013-009E,2026-07-12T11:13:41.134080,14.37177891,.00092621,98.3932,13.0813,148.5894,211.5848,0,U,39090,999,70069,.64298601E-4,.149E-5,0
BRITE-AUSTRIA,2013-009F,2026-07-12T23:30:06.302304,14.36551985,.00106411,98.4006,12.7781,156.9749,203.1916,0,U,39091,999,70075,.44937037E-4,.89E-6,0
NEE-01 PEGASO,2013-018B,2026-07-12T23:44:03.536448,14.93783715,.00136963,98.1249,338.9978,80.7615,279.5152,0,U,39151,999,71455,.10536056E-3,.1057E-4,0
POPACS 2,2013-055E,2026-07-13T04:56:34.842048,14.91964314,.04150914,80.9920,114.4009,110.2648,254.3692,0,U,39269,999,66709,.22645196E-3,.13879E-3,-.912864E-6
POPACS 3,2013-055F,2026-07-13T07:03:49.552128,14.56628293,.05490176,80.9984,200.8676,350.4712,8.6381,0,U,39270,999,64235,.20710342E-3,.873E-4,0
ZACUBE-1 (TSHEPISOSAT),2013-066B,2026-07-12T22:26:41.745696,15.01323430,.00439013,97.8010,156.3996,162.4582,197.8170,0,U,39417,999,68459,.11529818E-3,.145E-4,0
WNISAT-1,2013-066H,2026-07-13T05:16:55.496064,14.58117350,.01637646,97.7231,341.5327,149.5045,211.5805,0,U,39423,999,67052,.1272465E-3,.657E-5,0
TRITON-1,2013-066M,2026-07-13T07:04:11.789760,14.81789636,.00904275,97.8227,103.5057,148.2519,212.4191,0,U,39427,999,67795,.85356285E-4,.666E-5,0
GOMX-1,2013-066Q,2026-07-13T06:21:13.320864,14.69539924,.01284572,97.6476,33.0821,354.4286,5.5484,0,U,39430,999,67374,.12783247E-3,.808E-5,0
CUBEBUG-2 (LO-74),2013-066AA,2026-07-13T07:40:33.340512,14.93959309,.0055889,97.8910,143.4139,301.7151,57.8628,0,U,39440,999,68089,.18121969E-3,.1926E-4,0
NEE-02 KRYSAOR,2013-066AB,2026-07-13T06:08:54.251808,14.86734124,.00656004,97.8898,133.2874,345.6717,14.2636,0,U,39441,999,68007,.14227616E-3,.1256E-4,0
FUNCUBE-1 (AO-73),2013-066AE,2026-07-13T04:07:27.865920,15.09803151,.00380868,97.8287,166.1678,114.1842,246.3375,0,U,39444,999,68358,.22375131E-3,.3608E-4,0
UWE-3,2013-066AG,2026-07-12T19:32:08.748096,14.97190018,.004751,97.8701,150.0656,232.8178,126.8701,0,U,39446,999,68141,.16916257E-3,.1937E-4,0
BRITE-CA1 (TORONTO),2014-033L,2026-07-13T07:58:12.799776,14.72720389,.00782963,97.9769,322.7828,192.2372,167.6936,0,U,40020,999,64606,.89506307E-4,.545E-5,0
DUCHIFAT-1,2014-033M,2026-07-12T16:27:26.176896,15.70510170,.00021648,98.0440,256.5455,257.9613,102.1405,0,U,40021,999,65974,.89145614E-3,.110396E-2,0
NANOSATC-BR1,2014-033Q,2026-07-12T13:12:06.652800,15.32271898,.0005323,98.0714,228.1994,102.2683,257.9153,0,U,40024,999,65786,.35481E-3,.10975E-3,0
QB50P1,2014-033R,2026-07-12T12:29:54.904704,15.18640557,.00102199,98.0964,206.4495,132.7489,227.4606,0,U,40025,999,65687,.25721199E-3,.5256E-4,0
QB50P2,2014-033Y,2026-07-12T22:03:47.665152,15.15489609,.00093503,98.0758,192.4084,90.0706,270.1596,0,U,40032,999,65656,.22191345E-3,.413E-4,0
PERSEUS-M2,2014-033AD,2026-07-13T06:58:11.334144,14.95589247,.00106993,97.9969,145.3648,205.3486,154.7211,0,U,40037,999,65468,.16251347E-3,.1744E-4,0
PERSEUS-M1,2014-033AF,2026-07-13T06:16:14.590272,14.95711123,.00108044,97.9652,138.8236,203.0626,157.0111,0,U,40039,999,65453,.12397842E-3,.1321E-4,0
